NORAD_CAT_ID,OBJECT_NAME,OBJECT_TYPE,EPOCH,MEAN_MOTION,ECCENTRICITY,INCLINATION,RA_OF_ASC_NODE,ARG_OF_PERICENTER,MEAN_ANOMALY,BSTAR,MEAN_MOTION_DOT,MEAN_MOTION_DDOT,TLE_LINE0,TLE_LINE1,TLE_LINE2,SEMIMAJOR_AXIS,PERIOD,APOGEE,PERIGEE,DECAYED
53830.0,STARLINK-4761,PAYLOAD,2024-01-13 00:30:45,15.08839243,0.0001321,53.2164,235.4404,92.8925,267.2219,2.8458e-05,1.65e-06,0.0,0 STARLINK-4761,1 53830U 22114N   24013.02135589  .00000165  00000-0  28458-4 0  9995,2 53830  53.2164 235.4404 0001321  92.8925 267.2219 15.08839243 74076,6917.883,95.438,540.662,538.834,0.0
53830.0,STARLINK-4761,PAYLOAD,2024-01-13 21:10:45,15.08842643,0.0001442,53.2162,231.5722,110.2889,249.8258,2.4697e-05,1.05e-06,0.0,0 STARLINK-4761,1 53830U 22114N   24013.88247417  .00000105  00000-0  24697-4 0  9998,2 53830  53.2162 231.5722 0001442 110.2889 249.8258 15.08842643 73663,6917.872,95.437,540.735,538.74,0.0
53830.0,STARLINK-4761,PAYLOAD,2024-01-14 19:26:10,15.08836395,0.0001344,53.2159,227.4107,104.8174,255.2967,9.5991e-05,1.24e-05,0.0,0 STARLINK-4761,1 53830U 22114N   24014.80983956  .00001240  00000-0  95991-4 0  9992,2 53830  53.2159 227.4107 0001344 104.8174 255.2967 15.08836395 73808,6917.891,95.438,540.686,538.827,0.0
53830.0,STARLINK-4761,PAYLOAD,2024-01-14 21:01:33,15.08837341,0.0001321,53.216,227.1134,101.2853,258.8288,0.00010139,1.326e-05,0.0,0 STARLINK-4761,1 53830U 22114N   24014.87607925  .00001326  00000-0  10139-3 0  9993,2 53830  53.2160 227.1134 0001321 101.2853 258.8288 15.08837341 74355,6917.889,95.438,540.667,538.84,0.0
53830.0,STARLINK-4761,PAYLOAD,2024-01-15 12:55:24,15.08837608,0.0001366,53.2162,224.1392,102.4847,257.6298,9.4448e-05,1.215e-05,0.0,0 STARLINK-4761,1 53830U 22114N   24015.53848110  .00001215  00000-0  94448-4 0  9993,2 53830  53.2162 224.1392 0001366 102.4847 257.6298 15.08837608 74450,6917.888,95.438,540.698,538.808,0.0
53830.0,STARLINK-4761,PAYLOAD,2024-01-15 19:16:57,15.0884161,0.0001298,53.2161,222.9514,97.0285,263.0855,9.938e-05,1.294e-05,0.0,0 STARLINK-4761,1 53830U 22114N   24015.80343825  .00001294  00000-0  99380-4 0  9993,2 53830  53.2161 222.9514 0001298  97.0285 263.0855 15.08841610 74492,6917.875,95.437,540.638,538.843,0.0
53830.0,STARLINK-4761,PAYLOAD,2024-01-16 00:03:06,15.08844198,0.0001289,53.2158,222.0586,97.2897,262.8242,0.00010779,1.428e-05,0.0,0 STARLINK-4761,1 53830U 22114N   24016.00215615  .00001428  00000-0  10779-3 0  9994,2 53830  53.2158 222.0586 0001289  97.2897 262.8242 15.08844198 73983,6917.868,95.437,540.624,538.841,0.0
53830.0,STARLINK-4761,PAYLOAD,2024-01-16 14:21:35,15.08837633,0.000136,53.2164,219.3833,98.3269,261.7878,5.1435e-05,5.31e-06,0.0,0 STARLINK-4761,1 53830U 22114N   24016.59832337  .00000531  00000-0  51435-4 0  9993,2 53830  53.2164 219.3833 0001360  98.3269 261.7878 15.08837633 74619,6917.888,95.438,540.693,538.812,0.0
53830.0,STARLINK-4761,PAYLOAD,2024-01-16 19:07:44,15.08836561,0.0001391,53.2167,218.4916,108.7161,251.3982,6.3472e-06,-1.87e-06,0.0,0 STARLINK-4761,1 53830U 22114N   24016.79704501 -.00000187  00000-0  63472-5 0  9999,2 53830  53.2167 218.4916 0001391 108.7161 251.3982 15.08836561 74109,6917.891,95.438,540.718,538.794,0.0
53830.0,STARLINK-4761,PAYLOAD,2024-01-16 22:18:30,15.08837902,0.0001245,53.2161,217.8963,96.2094,263.904,4.5776e-05,4.41e-06,0.0,0 STARLINK-4761,1 53830U 22114N   24016.92952350  .00000441  00000-0  45776-4 0  9999,2 53830  53.2161 217.8963 0001245  96.2094 263.9040 15.08837902 74667,6917.887,95.438,540.613,538.891,0.0
53830.0,STARLINK-4761,PAYLOAD,2024-01-16 23:53:53,15.08838039,0.0001253,53.2158,217.599,94.9677,265.1458,4.2161e-05,3.83e-06,0.0,0 STARLINK-4761,1 53830U 22114N   24016.99576370  .00000383  00000-0  42161-4 0  9990,2 53830  53.2158 217.5990 0001253  94.9677 265.1458 15.08838039 74671,6917.886,95.438,540.618,538.885,0.0
53830.0,STARLINK-4761,PAYLOAD,2024-01-17 20:33:54,15.08842552,0.0001227,53.2158,213.7329,90.6689,269.4444,5.2554e-05,5.49e-06,0.0,0 STARLINK-4761,1 53830U 22114N   24017.85688225  .00000549  00000-0  52554-4 0  9990,2 53830  53.2158 213.7329 0001227  90.6689 269.4444 15.08842552 74804,6917.873,95.437,540.586,538.889,0.0
53830.0,STARLINK-4761,PAYLOAD,2024-01-18 12:27:46,15.08840508,0.0001277,53.2157,210.7591,85.4728,274.641,0.00011528,1.547e-05,0.0,0 STARLINK-4761,1 53830U 22114N   24018.51928274  .00001547  00000-0  11528-3 0  9999,2 53830  53.2157 210.7591 0001277  85.4728 274.6410 15.08840508 74903,6917.879,95.438,540.627,538.86,0.0
53830.0,STARLINK-4761,PAYLOAD,2024-01-18 20:24:41,15.08844632,0.0001286,53.2158,209.2729,86.3319,273.7821,0.00014151,1.965e-05,0.0,0 STARLINK-4761,1 53830U 22114N   24018.85047938  .00001965  00000-0  14151-3 0  9994,2 53830  53.2158 209.2729 0001286  86.3319 273.7821 15.08844632 74959,6917.866,95.437,540.621,538.842,0.0
53830.0,STARLINK-4761,PAYLOAD,2024-01-19 12:18:33,15.08842975,0.0001529,53.2168,206.3014,73.5054,286.6107,0.00011504,1.543e-05,0.0,0 STARLINK-4761,1 53830U 22114N   24019.51288231  .00001543  00000-0  11504-3 0  9992,2 53830  53.2168 206.3014 0001529  73.5054 286.6107 15.08842975 74519,6917.871,95.437,540.794,538.679,0.0
53830.0,STARLINK-4761,PAYLOAD,2024-01-19 21:50:51,15.08845169,0.0001405,53.2163,204.5154,81.0118,279.1033,8.9745e-05,1.141e-05,0.0,0 STARLINK-4761,1 53830U 22114N   24019.91031959  .00001141  00000-0  89745-4 0  9996,2 53830  53.2163 204.5154 0001405  81.0118 279.1033 15.08845169 75117,6917.865,95.437,540.702,538.758,0.0
53830.0,STARLINK-4761,PAYLOAD,2024-01-20 18:30:52,15.08839883,0.0001357,53.2162,200.6487,90.9706,269.1442,9.7409e-06,-1.33e-06,0.0,0 STARLINK-4761,1 53830U 22114N   24020.77144374 -.00000133  00000-0  97409-5 0  9996,2 53830  53.2162 200.6487 0001357  90.9706 269.1442 15.08839883 74703,6917.881,95.438,540.685,538.807,0.0
53830.0,STARLINK-4761,PAYLOAD,2024-01-20 21:41:38,15.08841096,0.0001337,53.2159,200.0535,94.2034,265.9111,1.648e-05,-2.6e-07,0.0,0 STARLINK-4761,1 53830U 22114N   24020.90392218 -.00000026  00000-0  16480-4 0  9993,2 53830  53.2159 200.0535 0001337  94.2034 265.9111 15.08841096 75264,6917.877,95.437,540.667,538.817,0.0
53830.0,STARLINK-4761,PAYLOAD,2024-01-21 18:21:39,15.08844516,0.000126,53.2158,196.1865,91.9642,268.1494,6.7778e-05,7.91e-06,0.0,0 STARLINK-4761,1 53830U 22114N   24021.76503824  .00000791  00000-0  67778-4 0  9999,2 53830  53.2158 196.1865 0001260  91.9642 268.1494 15.08844516 75391,6917.867,95.437,540.603,538.86,0.0
53830.0,STARLINK-4761,PAYLOAD,2024-01-22 11:50:54,15.08837911,0.0001228,53.2156,192.9162,91.6656,268.4477,5.0933e-05,5.23e-06,0.0,0 STARLINK-4761,1 53830U 22114N   24022.49368357  .00000523  00000-0  50933-4 0  9998,2 53830  53.2156 192.9162 0001228  91.6656 268.4477 15.08837911 74966,6917.887,95.438,540.601,538.902,0.0
53830.0,STARLINK-4761,PAYLOAD,2024-01-22 18:12:26,15.08840796,0.0001221,53.2156,191.7265,91.2368,268.8764,7.0058e-05,8.27e-06,0.0,0 STARLINK-4761,1 53830U 22114N   24022.75864113  .00000827  00000-0  70058-4 0  9995,2 53830  53.2156 191.7265 0001221  91.2368 268.8764 15.08840796 75549,6917.878,95.438,540.588,538.898,0.0
53830.0,STARLINK-4761,PAYLOAD,2024-01-23 02:09:22,15.08829207,0.0001264,53.2157,190.2397,106.8921,253.221,-4.0408e-05,-9.31e-06,0.0,0 STARLINK-4761,1 53830U 22114N   24023.08984947 -.00000931  00000-0 -40408-4 0  9994,2 53830  53.2157 190.2397 0001264 106.8921 253.2210 15.08829207 75059,6917.913,95.438,540.653,538.904,0.0
53830.0,STARLINK-4761,PAYLOAD,2024-01-23 16:27:50,15.08839674,0.0001301,53.2158,187.564,88.2687,271.8454,2.4016e-05,9.4e-07,0.0,0 STARLINK-4761,1 53830U 22114N   24023.68600512  .00000094  00000-0  24016-4 0  9998,2 53830  53.2158 187.5640 0001301  88.2687 271.8454 15.08839674 75149,6917.881,95.438,540.646,538.846,0.0
53830.0,STARLINK-4761,PAYLOAD,2024-01-23 21:13:59,15.08844557,0.0001309,53.2162,186.6719,85.6968,274.4174,5.9451e-05,6.58e-06,0.0,0 STARLINK-4761,1 53830U 22114N   24023.88472041  .00000658  00000-0  59451-4 0  9991,2 53830  53.2162 186.6719 0001309  85.6968 274.4174 15.08844557 75719,6917.866,95.437,540.637,538.826,0.0
53830.0,STARLINK-4761,PAYLOAD,2024-01-23 22:49:22,15.08845365,0.0001305,53.2161,186.3742,87.506,272.6081,6.7561e-05,7.88e-06,0.0,0 STARLINK-4761,1 53830U 22114N   24023.95095948  .00000788  00000-0  67561-4 0  9991,2 53830  53.2161 186.3742 0001305  87.5060 272.6081 15.08845365 75187,6917.864,95.437,540.632,538.826,0.0
53830.0,STARLINK-4761,PAYLOAD,2024-01-24 14:43:15,15.08832168,0.0001295,53.2164,183.4007,87.0032,273.1108,-2.1383e-05,-6.28e-06,0.0,0 STARLINK-4761,1 53830U 22114N   24024.61337321 -.00000628  00000-0 -21383-4 0  9996,2 53830  53.2164 183.4007 0001295  87.0032 273.1108 15.08832168 75828,6917.904,95.438,540.665,538.873,0.0
53830.0,STARLINK-4761,PAYLOAD,2024-01-24 17:54:01,15.08837259,0.0001535,53.2165,182.8062,65.9927,294.1226,2.3598e-05,8.8e-07,0.0,0 STARLINK-4761,1 53830U 22114N   24024.74585072  .00000088  00000-0  23598-4 0  9996,2 53830  53.2165 182.8062 0001535  65.9927 294.1226 15.08837259 75301,6917.889,95.438,540.816,538.692,0.0
53830.0,STARLINK-4761,PAYLOAD,2024-01-25 14:34:02,15.08839498,0.0001419,53.2163,178.9403,84.6984,275.417,9.705e-05,1.257e-05,0.0,0 STARLINK-4761,1 53830U 22114N   24025.60696921  .00001257  00000-0  97050-4 0  9991,2 53830  53.2163 178.9403 0001419  84.6984 275.4170 15.08839498 75976,6917.882,95.438,540.729,538.765,0.0
53830.0,STARLINK-4761,PAYLOAD,2024-01-25 17:44:48,15.08840884,0.0001418,53.2166,178.3461,77.3407,282.7744,0.00011555,1.552e-05,0.0,0 STARLINK-4761,1 53830U 22114N   24025.73944917  .00001552  00000-0  11555-3 0  9999,2 53830  53.2166 178.3461 0001418  77.3407 282.7744 15.08840884 75996,6917.878,95.437,540.724,538.762,0.0
53830.0,STARLINK-4761,PAYLOAD,2024-01-26 14:24:49,15.0884431,0.000151,53.217,174.4785,70.4882,289.6273,0.00013326,1.834e-05,0.0,0 STARLINK-4761,1 53830U 22114N   24026.60056762  .00001834  00000-0  13326-3 0  9999,2 53830  53.2170 174.4785 0001510  70.4882 289.6273 15.08844310 76128,6917.867,95.437,540.777,538.688,0.0
